*******************************************************************************
Ephemeris / WWW_USER Tue Mar 27 20:27:09 2018 Pasadena, USA      / Horizons    
*******************************************************************************
Target body name: Titania (703)                   {source: ura111}
Center body name: Solar System Barycenter (0)     {source: DE431mx}
Center-site name: BODY CENTER
*******************************************************************************
Start time      : A.D. 2000-Jan-01 00:00:00.0000 TDB
Stop  time      : A.D. 2010-Jan-01 00:00:00.0000 TDB
Step-size       : 7200 minutes
*******************************************************************************
Center geodetic : 0.00000000,0.00000000,0.0000000 {E-lon(deg),Lat(deg),Alt(km)}
Center cylindric: 0.00000000,0.00000000,0.0000000 {E-lon(deg),Dxy(km),Dz(km)}
Center radii    : (undefined)                                                  
Output units    : AU-D                                                         
Output type     : GEOMETRIC cartesian states
Output format   : 2 (position and velocity)
Reference frame : ICRF/J2000.0                                                 
Coordinate systm: Ecliptic and Mean Equinox of Reference Epoch                 
*******************************************************************************
JDTDB
   X     Y     Z
   VX    VY    VZ
*******************************************************************************
$$SOE
2451754.500000000 = A.D. 2000-Jul-29 00:00:00.0000 TDB 
   1.497342238225790E+01 -1.316763989810355E+01 -2.454497751207539E-01
   8.114983186613971E-04  3.302190591012760E-03  1.012970438040583E-03
2451759.500000000 = A.D. 2000-Aug-03 00:00:00.0000 TDB 
   1.499016061894712E+01 -1.315405943147400E+01 -2.414523824892496E-01
   3.655032402644550E-03  2.290073477627968E-03 -1.756610737516952E-03
2451764.500000000 = A.D. 2000-Aug-08 00:00:00.0000 TDB 
   1.499772577540291E+01 -1.313930642333917E+01 -2.435086406864830E-01
   2.383529850469291E-03  3.105978572470267E-03  2.046793123615159E-03
2451769.500000000 = A.D. 2000-Aug-13 00:00:00.0000 TDB 
   1.501602012034202E+01 -1.312671814809370E+01 -2.442671462200987E-01
   1.802170944020655E-03  2.668269586400086E-03 -1.986997865247473E-03
2451774.500000000 = A.D. 2000-Aug-18 00:00:00.0000 TDB 
   1.502426822475426E+01 -1.311139011484935E+01 -2.412974969916150E-01
   4.090199233842904E-03  2.644456577332438E-03  1.404233120379169E-03
2451779.500000000 = A.D. 2000-Aug-23 00:00:00.0000 TDB 
   1.503966635654836E+01 -1.309874181963074E+01 -2.462825656984694E-01
   5.603833231637555E-04  3.137341581496619E-03 -6.166020146273756E-04
2451784.500000000 = A.D. 2000-Aug-28 00:00:00.0000 TDB 
   1.505228552470336E+01 -1.308399957057860E+01 -2.407813882879180E-01
   4.560936438607928E-03  2.292865769026910E-03 -3.868123997741894E-04
2451789.500000000 = A.D. 2000-Sep-02 00:00:00.0000 TDB 
   1.506266726137758E+01 -1.307027030011880E+01 -2.460433044690165E-01
   9.452325739752060E-04  3.317045202322613E-03  1.236597575504988E-03
2451794.500000000 = A.D. 2000-Sep-07 00:00:00.0000 TDB 
   1.507977881532729E+01 -1.305678144723163E+01 -2.425684515416511E-01
   3.405587239139318E-03  2.338656537575109E-03 -1.891470354154798E-03
2451799.500000000 = A.D. 2000-Sep-12 00:00:00.0000 TDB 
   1.508706337393608E+01 -1.304180692513681E+01 -2.439409559110764E-01
   2.623309004423605E-03  3.067577228049404E-03  2.057660680253310E-03
2451804.500000000 = A.D. 2000-Sep-17 00:00:00.0000 TDB 
   1.510511261618922E+01 -1.302919992183412E+01 -2.454016145534437E-01
   1.542737935803051E-03  2.752693841521141E-03 -1.882254519424282E-03
2451809.500000000 = A.D. 2000-Sep-22 00:00:00.0000 TDB 
   1.511370408513142E+01 -1.301380303100714E+01 -2.418576331643470E-01
   4.230666662147753E-03  2.597860041803676E-03  1.202020781654812E-03
2451814.500000000 = A.D. 2000-Sep-27 00:00:00.0000 TDB 
   1.512836072783674E+01 -1.300097275405402E+01 -2.471575208390757E-01
   4.911605408749039E-04  3.202133529650100E-03 -3.540613826025936E-04
2451819.500000000 = A.D. 2000-Oct-02 00:00:00.0000 TDB 
   1.514159104172654E+01 -1.298630205080950E+01 -2.416606198445645E-01
   4.473739375138303E-03  2.288345248595912E-03 -6.450646070328230E-04
2451824.500000000 = A.D. 2000-Oct-07 00:00:00.0000 TDB 
   1.515125927251175E+01 -1.297230717171094E+01 -2.465973833603052E-01
   1.102868782664902E-03  3.322784272784586E-03  1.433890315006678E-03
2451829.500000000 = A.D. 2000-Oct-12 00:00:00.0000 TDB 
   1.516866830229679E+01 -1.295890176580303E+01 -2.436996702186597E-01
   3.140556480206256E-03  2.394705001160471E-03 -1.996480703398368E-03
2451834.500000000 = A.D. 2000-Oct-17 00:00:00.0000 TDB 
   1.517576102328316E+01 -1.294372238377073E+01 -2.443625590558850E-01
   2.862283089735630E-03  3.025069984298372E-03  2.039216190248650E-03
2451839.500000000 = A.D. 2000-Oct-22 00:00:00.0000 TDB 
   1.519347804203789E+01 -1.293107537410656E+01 -2.465044517957148E-01
   1.300780172822681E-03  2.837969794768738E-03 -1.743032826755378E-03
2451844.500000000 = A.D. 2000-Oct-27 00:00:00.0000 TDB 
   1.520248092926093E+01 -1.291563344571720E+01 -2.424434944501413E-01
   4.346379326000794E-03  2.553658455759395E-03  9.793146319948428E-04
2451849.500000000 = A.D. 2000-Nov-01 00:00:00.0000 TDB 
   1.521636937785714E+01 -1.290260436829382E+01 -2.479747341755438E-01
   4.566224118907392E-04  3.259094162539249E-03 -9.185360509297776E-05
2451854.500000000 = A.D. 2000-Nov-06 00:00:00.0000 TDB 
   1.523019462868054E+01 -1.288801534982133E+01 -2.425737377294374E-01
   4.353475304571049E-03  2.292238133421473E-03 -8.940574885292759E-04
2451859.500000000 = A.D. 2000-Nov-11 00:00:00.0000 TDB 
   1.523919262132830E+01 -1.287375348445206E+01 -2.471022248013230E-01
   1.281673090444431E-03  3.320969761079937E-03  1.611650940567233E-03
2451864.500000000 = A.D. 2000-Nov-16 00:00:00.0000 TDB 
   1.525682260853779E+01 -1.286042244368347E+01 -2.448310240429012E-01
   2.864415653706799E-03  2.458018272239475E-03 -2.066002892322942E-03
2451869.500000000 = A.D. 2000-Nov-21 00:00:00.0000 TDB 
   1.526381339176967E+01 -1.284505731515011E+01 -2.447740432155941E-01
   3.097923783511721E-03  2.978575095003956E-03  1.988321499182717E-03
2451874.500000000 = A.D. 2000-Nov-26 00:00:00.0000 TDB 
   1.528111972062204E+01 -1.283234866771683E+01 -2.475602188683754E-01
   1.083310477819315E-03  2.921157654888180E-03 -1.579255774407851E-03
2451879.500000000 = A.D. 2000-Dec-01 00:00:00.0000 TDB 
   1.529058647787846E+01 -1.281688436226836E+01 -2.430558070587001E-01
   4.431049498259143E-03  2.513649488227607E-03  7.390564544762800E-04
2451884.500000000 = A.D. 2000-Dec-06 00:00:00.0000 TDB 
   1.530367799358519E+01 -1.280363868798671E+01 -2.487309642021613E-01
   4.515270366807283E-04  3.309899986965366E-03  1.736767174966135E-04
2451889.500000000 = A.D. 2000-Dec-11 00:00:00.0000 TDB 
   1.531807911750659E+01 -1.278914037866236E+01 -2.435142038031802E-01
   4.201165450302374E-03  2.305259732292898E-03 -1.126993270010966E-03
2451894.500000000 = A.D. 2000-Dec-16 00:00:00.0000 TDB 
   1.532646454135203E+01 -1.277461470324642E+01 -2.475612385941958E-01
   1.481542882835254E-03  3.310904729588106E-03  1.764785545775501E-03
2451899.500000000 = A.D. 2000-Dec-21 00:00:00.0000 TDB 
   1.534423300416813E+01 -1.276134535881739E+01 -2.459495192233500E-01
   2.587788823626690E-03  2.525987672422181E-03 -2.102079722198280E-03
2451904.500000000 = A.D. 2000-Dec-26 00:00:00.0000 TDB 
   1.535121154877473E+01 -1.274581640006883E+01 -2.451827322361055E-01
   3.323836639474297E-03  2.929130798681387E-03  1.902430288735784E-03
2451909.500000000 = A.D. 2000-Dec-31 00:00:00.0000 TDB 
   1.536802324262261E+01 -1.273302340308399E+01 -2.485770990037479E-01
   8.836287769295239E-04  3.003815207439566E-03 -1.390320523379511E-03
2451914.500000000 = A.D. 2001-Jan-05 00:00:00.0000 TDB 
   1.537800449249940E+01 -1.271755865552441E+01 -2.437004155144681E-01
   4.481962602176023E-03  2.479148969266391E-03  4.863889782992895E-04
2451919.500000000 = A.D. 2001-Jan-10 00:00:00.0000 TDB 
   1.539028634112804E+01 -1.270408143458580E+01 -2.494273903903471E-01
   4.798159573718405E-04  3.353174096363263E-03  4.389674168425837E-04
2451924.500000000 = A.D. 2001-Jan-15 00:00:00.0000 TDB 
   1.540523003064311E+01 -1.268967903283587E+01 -2.444781192571580E-01
   4.024898551652922E-03  2.326309824565647E-03 -1.339175335094449E-03
2451929.500000000 = A.D. 2001-Jan-20 00:00:00.0000 TDB 
   1.541307300973600E+01 -1.267489727975940E+01 -2.479834140590549E-01
   1.700118511954024E-03  3.292191477820712E-03  1.886803438818088E-03
2451934.500000000 = A.D. 2001-Jan-25 00:00:00.0000 TDB 
   1.543089496363869E+01 -1.266167722871704E+01 -2.470700615382674E-01
   2.304557179621393E-03  2.599477625686116E-03 -2.108012538155753E-03
2451939.500000000 = A.D. 2001-Jan-30 00:00:00.0000 TDB 
   1.543794765193820E+01 -1.264600552204787E+01 -2.456027109299008E-01
   3.534090873812252E-03  2.878435884281320E-03  1.784281765026336E-03
2451944.500000000 = A.D. 2001-Feb-04 00:00:00.0000 TDB 
   1.545418943238083E+01 -1.263310498994806E+01 -2.495522363579017E-01
   7.085015941992279E-04  3.084439831728379E-03 -1.176335045740029E-03
2451949.500000000 = A.D. 2001-Feb-09 00:00:00.0000 TDB 
   1.546472102495463E+01 -1.261765969307730E+01 -2.443830552929375E-01
   4.502006475648422E-03  2.450819952519428E-03  2.305261126636151E-04
2451954.500000000 = A.D. 2001-Feb-14 00:00:00.0000 TDB 
   1.547620236563661E+01 -1.260394078898414E+01 -2.500696979529462E-01
   5.441444820972638E-04  3.387235553684231E-03  6.961713550968397E-04
2451959.500000000 = A.D. 2001-Feb-19 00:00:00.0000 TDB 
   1.549165403553222E+01 -1.258963973657120E+01 -2.454749381179607E-01
   3.822164524020650E-03  2.355199262261840E-03 -1.535746770773958E-03
